{"type": "FeatureCollection", "features": [{"type": "Feature", "geometry": {"type": "Point", "coordinates": [101.718671, 3.1417993]}, "properties": {"id": "KL-01", "name": "The Exchange 106", "antenna_height": 459.6, "roof_height": 453.6, "range_m": 650.0, "host_building": "b503451214"}}, {"type": "Feature", "geometry": {"type": "Point", "coordinates": [101.7138672, 3.1580393]}, "properties": {"id": "KL-02", "name": "Four Seasons Place Kuala Lumpur", "antenna_height": 348.5, "roof_height": 342.5, "range_m": 650.0, "host_building": "b524812840"}}, {"type": "Feature", "geometry": {"type": "Point", "coordinates": [101.7136703, 3.1531533]}, "properties": {"id": "KL-03", "name": "Menara Permata Sapura", "antenna_height": 258.0, "roof_height": 252.0, "range_m": 650.0, "host_building": "b1410134107"}}, {"type": "Feature", "geometry": {"type": "Point", "coordinates": [101.7188388, 3.1588754]}, "properties": {"id": "KL-04", "name": "Menara Ilham", "antenna_height": 280.0, "roof_height": 274.0, "range_m": 650.0, "host_building": "b370519334"}}, {"type": "Feature", "geometry": {"type": "Point", "coordinates": [101.7113748, 3.1565605]}, "properties": {"id": "KL-05", "name": "Menara 3 Petronas", "antenna_height": 273.0, "roof_height": 267.0, "range_m": 650.0, "host_building": "b469717874"}}, {"type": "Feature", "geometry": {"type": "Point", "coordinates": [101.7096386, 3.15311]}, "properties": {"id": "KL-06", "name": "Equatorial Plaza", "antenna_height": 236.0, "roof_height": 230.0, "range_m": 650.0, "host_building": "b661782737"}}, {"type": "Feature", "geometry": {"type": "Point", "coordinates": [101.7109971, 3.1612151]}, "properties": {"id": "KL-07", "name": "Menara AmBank", "antenna_height": 216.0, "roof_height": 210.0, "range_m": 650.0, "host_building": "b244434936"}}, {"type": "Feature", "geometry": {"type": "Point", "coordinates": [101.7094106, 3.1584938]}, "properties": {"id": "KL-08", "name": "Site 08", "antenna_height": 241.0, "roof_height": 235.0, "range_m": 650.0, "host_building": "b661786933"}}, {"type": "Feature", "geometry": {"type": "Point", "coordinates": [101.7197499, 3.1441788]}, "properties": {"id": "KL-09", "name": "Menara TSLAW", "antenna_height": 241.0, "roof_height": 235.0, "range_m": 650.0, "host_building": "b800763103"}}, {"type": "Feature", "geometry": {"type": "Point", "coordinates": [101.7126346, 3.148234]}, "properties": {"id": "KL-10", "name": "Pavilion Suites", "antenna_height": 236.0, "roof_height": 230.0, "range_m": 650.0, "host_building": "b585538315"}}, {"type": "Feature", "geometry": {"type": "Point", "coordinates": [101.7073022, 3.1547371]}, "properties": {"id": "KL-11", "name": "Vortex Tower", "antenna_height": 241.0, "roof_height": 235.0, "range_m": 650.0, "host_building": "b544348327"}}, {"type": "Feature", "geometry": {"type": "Point", "coordinates": [101.7198778, 3.1524458]}, "properties": {"id": "KL-12", "name": "Site 12", "antenna_height": 192.8, "roof_height": 186.8, "range_m": 650.0, "host_building": "b868421993"}}, {"type": "Feature", "geometry": {"type": "Point", "coordinates": [101.7162184, 3.1525821]}, "properties": {"id": "KL-13", "name": "Imperial Lexis Kuala Lumpur", "antenna_height": 178.8, "roof_height": 172.8, "range_m": 650.0, "host_building": "b1237772916"}}, {"type": "Feature", "geometry": {"type": "Point", "coordinates": [101.705596, 3.1588373]}, "properties": {"id": "KL-14", "name": "Crest Residences", "antenna_height": 184.0, "roof_height": 178.0, "range_m": 650.0, "host_building": "b589110051"}}, {"type": "Feature", "geometry": {"type": "Point", "coordinates": [101.7048752, 3.1475741]}, "properties": {"id": "KL-15", "name": "Tower A", "antenna_height": 181.0, "roof_height": 175.0, "range_m": 650.0, "host_building": "b589156147"}}]}